{"type": "FeatureCollection", "features": [ {"type": "Feature", "properties": {"norad_id": 37908, "name": "FENGYUN 1C DEB", "group": "fengyun-1c-debris", "lat": 27.003906804761918, "lon": 29.39966154183559, "alt_km": 766.1742604728224, "timestamp": "2025-12-27T07:26:25.511424+00:00", "meta": {"OBJECT_NAME": "FENGYUN 1C DEB", "OBJECT_ID": "1999-025ENH", "EPOCH": "2025-12-21T07:33:41.047488", "MEAN_MOTION": 14.36621553, "ECCENTRICITY": 0.00747559, "INCLINATION": 99.1512, "RA_OF_ASC_NODE": 27.7446, "ARG_OF_PERICENTER": 132.8804, "MEAN_ANOMALY": 227.869, "EPHEMERIS_TYPE": 0, "CLASSIFICATION_TYPE": "U", "NORAD_CAT_ID": 37908, "ELEMENT_SET_NO": 999, "REV_AT_EPOCH": 64184, "BSTAR": 0.00036301437, "MEAN_MOTION_DOT": 1.053e-05, "MEAN_MOTION_DDOT": 0}, "tle": {"line1": "1 37908U 99025ENH 25355.31505842  .00001053  00000+0  36301-3 0  9994", "line2": "2 37908  99.1512  27.7446 0074755 132.8804 227.8690 14.36621553641843"}}, "geometry": {"type": "Point", "coordinates": [29.39966154183559, 27.003906804761918]}}, {"type": "Feature", "properties": {"norad_id": 37912, "name": "FENGYUN 1C DEB", "group": "fengyun-1c-debris", "lat": 36.14061780251277, "lon": 157.16095547613006, "alt_km": 887.6911617233472, "timestamp": "2025-12-27T07:26:25.511433+00:00", "meta": {"OBJECT_NAME": "FENGYUN 1C DEB", "OBJECT_ID": "1999-025ENM", "EPOCH": "2025-12-24T09:01:28.629120", "MEAN_MOTION": 14.11593398, "ECCENTRICITY": 0.00927445, "INCLINATION": 99.2304, "RA_OF_ASC_NODE": 327.3238, "ARG_OF_PERICENTER": 28.0606, "MEAN_ANOMALY": 332.552, "EPHEMERIS_TYPE": 0, "CLASSIFICATION_TYPE": "U", "NORAD_CAT_ID": 37912, "ELEMENT_SET_NO": 999, "REV_AT_EPOCH": 77452, "BSTAR": 0.0025536166, "MEAN_MOTION_DOT": 4.787e-05, "MEAN_MOTION_DDOT": 0}, "tle": {"line1": "1 37912U 99025ENM 25358.37602580  .00004787  00000+0  25536-2 0  9999", "line2": "2 37912  99.2304 327.3238 0092744  28.0606 332.5520 14.11593398774526"}}, "geometry": {"type": "Point", "coordinates": [157.16095547613006, 36.14061780251277]}}, {"type": "Feature", "properties": {"norad_id": 37918, "name": "FENGYUN 1C DEB", "group": "fengyun-1c-debris", "lat": -60.10253996264402, "lon": -32.52848074951054, "alt_km": 763.2836979306821, "timestamp": "2025-12-27T07:26:25.511444+00:00", "meta": {"OBJECT_NAME": "FENGYUN 1C DEB", "OBJECT_ID": "1999-025ENT", "EPOCH": "2025-12-24T14:26:11.945760", "MEAN_MOTION": 14.34427362, "ECCENTRICITY": 0.00546335, "INCLINATION": 99.0295, "RA_OF_ASC_NODE": 308.5879, "ARG_OF_PERICENTER": 248.3892, "MEAN_ANOMALY": 111.1466, "EPHEMERIS_TYPE": 0, "CLASSIFICATION_TYPE": "U", "NORAD_CAT_ID": 37918, "ELEMENT_SET_NO": 999, "REV_AT_EPOCH": 3712, "BSTAR": 0.00066196779, "MEAN_MOTION_DOT": 1.847e-05, "MEAN_MOTION_DDOT": 0}, "tle": {"line1": "1 37918U 99025ENT 25358.60152715  .00001847  00000+0  66197-3 0  9994", "line2": "2 37918  99.0295 308.5879 0054633 248.3892 111.1466 14.34427362 37120"}}, "geometry": {"type": "Point", "coordinates": [-32.52848074951054, -60.10253996264402]}}, {"type": "Feature", "properties": {"norad_id": 37919, "name": "FENGYUN 1C DEB", "group": "fengyun-1c-debris", "lat": 70.51891096974349, "lon": -87.04338844726202, "alt_km": 800.4114308753606, "timestamp": "2025-12-27T07:26:25.511454+00:00", "meta": {"OBJECT_NAME": "FENGYUN 1C DEB", "OBJECT_ID": "1999-025ENU", "EPOCH": "2025-12-21T13:05:37.870080", "MEAN_MOTION": 14.26784577, "ECCENTRICITY": 0.0049416, "INCLINATION": 99.0587, "RA_OF_ASC_NODE": 293.7998, "ARG_OF_PERICENTER": 351.2429, "MEAN_ANOMALY": 8.7883, "EPHEMERIS_TYPE": 0, "CLASSIFICATION_TYPE": "U", "NORAD_CAT_ID": 37919, "ELEMENT_SET_NO": 999, "REV_AT_EPOCH": 65034, "BSTAR": 0.0004279, "MEAN_MOTION_DOT": 1.003e-05, "MEAN_MOTION_DDOT": 0}, "tle": {"line1": "1 37919U 99025ENU 25355.54557720  .00001003  00000+0  42790-3 0  9997", "line2": "2 37919  99.0587 293.7998 0049416 351.2429   8.7883 14.26784577650349"}}, "geometry": {"type": "Point", "coordinates": [-87.04338844726202, 70.51891096974349]}}, {"type": "Feature", "properties": {"norad_id": 37921, "name": "FENGYUN 1C DEB", "group": "fengyun-1c-debris", "lat": 29.401691800248553, "lon": -132.79558986605582, "alt_km": 909.6554940719816, "timestamp": "2025-12-27T07:26:25.511464+00:00", "meta": {"OBJECT_NAME": "FENGYUN 1C DEB", "OBJECT_ID": "1999-025ENW", "EPOCH": "2025-12-21T19:55:24.950496", "MEAN_MOTION": 13.95159889, "ECCENTRICITY": 0.00843197, "INCLINATION": 99.021, "RA_OF_ASC_NODE": 36.7092, "ARG_OF_PERICENTER": 74.058, "MEAN_ANOMALY": 286.9853, "EPHEMERIS_TYPE": 0, "CLASSIFICATION_TYPE": "U", "NORAD_CAT_ID": 37921, "ELEMENT_SET_NO": 999, "REV_AT_EPOCH": 63274, "BSTAR": 0.00031229262, "MEAN_MOTION_DOT": 3.91e-06, "MEAN_MOTION_DDOT": 0}, "tle": {"line1": "1 37921U 99025ENW 25355.83014989  .00000391  00000+0  31229-3 0  9991", "line2": "2 37921  99.0210  36.7092 0084319  74.0580 286.9853 13.95159889632742"}}, "geometry": {"type": "Point", "coordinates": [-132.79558986605582, 29.401691800248553]}}, {"type": "Feature", "properties": {"norad_id": 37925, "name": "FENGYUN 1C DEB", "group": "fengyun-1c-debris", "lat": 69.2832102672955, "lon": -152.65225034747866, "alt_km": 647.4098257598507, "timestamp": "2025-12-27T07:26:25.511474+00:00", "meta": {"OBJECT_NAME": "FENGYUN 1C DEB", "OBJECT_ID": "1999-025EPA", "EPOCH": "2025-12-22T21:41:38.860800", "MEAN_MOTION": 14.80526884, "ECCENTRICITY": 0.0055816, "INCLINATION": 99.0855, "RA_OF_ASC_NODE": 227.3947, "ARG_OF_PERICENTER": 311.3833, "MEAN_ANOMALY": 48.2583, "EPHEMERIS_TYPE": 0, "CLASSIFICATION_TYPE": "U", "NORAD_CAT_ID": 37925, "ELEMENT_SET_NO": 999, "REV_AT_EPOCH": 65833, "BSTAR": 0.0018808, "MEAN_MOTION_DOT": 0.00014755, "MEAN_MOTION_DDOT": 0}, "tle": {"line1": "1 37925U 99025EPA 25356.90392200  .00014755  00000+0  18808-2 0  9995", "line2": "2 37925  99.0855 227.3947 0055816 311.3833  48.2583 14.80526884658336"}}, "geometry": {"type": "Point", "coordinates": [-152.65225034747866, 69.2832102672955]}}, {"type": "Feature", "properties": {"norad_id": 37926, "name": "FENGYUN 1C DEB", "group": "fengyun-1c-debris", "lat": -33.92761420294092, "lon": -121.55303972675509, "alt_km": 784.4227456631606, "timestamp": "2025-12-27T07:26:25.511485+00:00", "meta": {"OBJECT_NAME": "FENGYUN 1C DEB", "OBJECT_ID": "1999-025EPB", "EPOCH": "2025-12-26T03:47:17.191104", "MEAN_MOTION": 14.24308982, "ECCENTRICITY": 0.00546457, "INCLINATION": 98.722, "RA_OF_ASC_NODE": 63.2306, "ARG_OF_PERICENTER": 183.2823, "MEAN_ANOMALY": 246.1525, "EPHEMERIS_TYPE": 0, "CLASSIFICATION_TYPE": "U", "NORAD_CAT_ID": 37926, "ELEMENT_SET_NO": 999, "REV_AT_EPOCH": 74461, "BSTAR": 0.0014652727, "MEAN_MOTION_DOT": 3.394e-05, "MEAN_MOTION_DDOT": 0}, "tle": {"line1": "1 37926U 99025EPB 25360.15783786  .00003394  00000+0  14653-2 0  9992", "line2": "2 37926  98.7220  63.2306 0054645 183.2823 246.1525 14.24308982744616"}}, "geometry": {"type": "Point", "coordinates": [-121.55303972675509, -33.92761420294092]}}, {"type": "Feature", "properties": {"norad_id": 37927, "name": "FENGYUN 1C DEB", "group": "fengyun-1c-debris", "lat": 13.939145261525235, "lon": -31.59994849268498, "alt_km": 652.2102394475332, "timestamp": "2025-12-27T07:26:25.511495+00:00", "meta": {"OBJECT_NAME": "FENGYUN 1C DEB", "OBJECT_ID": "1999-025EPC", "EPOCH": "2025-12-26T04:35:39.607296", "MEAN_MOTION": 14.72395147, "ECCENTRICITY": 0.0008434, "INCLINATION": 98.8077, "RA_OF_ASC_NODE": 144.9834, "ARG_OF_PERICENTER": 239.2656, "MEAN_ANOMALY": 120.7719, "EPHEMERIS_TYPE": 0, "CLASSIFICATION_TYPE": "U", "NORAD_CAT_ID": 37927, "ELEMENT_SET_NO": 999, "REV_AT_EPOCH": 65314, "BSTAR": 0.0041962, "MEAN_MOTION_DOT": 0.00026636, "MEAN_MOTION_DDOT": 0}, "tle": {"line1": "1 37927U 99025EPC 25360.19143064  .00026636  00000+0  41962-2 0  9993", "line2": "2 37927  98.8077 144.9834 0008434 239.2656 120.7719 14.72395147653143"}}, "geometry": {"type": "Point", "coordinates": [-31.59994849268498, 13.939145261525235]}}, {"type": "Feature", "properties": {"norad_id": 37928, "name": "FENGYUN 1C DEB", "group": "fengyun-1c-debris", "lat": 72.23186259571722, "lon": -152.89982345605048, "alt_km": 755.1702211640468, "timestamp": "2025-12-27T07:26:25.511505+00:00", "meta": {"OBJECT_NAME": "FENGYUN 1C DEB", "OBJECT_ID": "1999-025EPD", "EPOCH": "2025-12-21T09:04:11.551008", "MEAN_MOTION": 14.37132631, "ECCENTRICITY": 0.0073076, "INCLINATION": 98.9148, "RA_OF_ASC_NODE": 230.2847, "ARG_OF_PERICENTER": 7.9876, "MEAN_ANOMALY": 352.2454, "EPHEMERIS_TYPE": 0, "CLASSIFICATION_TYPE": "U", "NORAD_CAT_ID": 37928, "ELEMENT_SET_NO": 999, "REV_AT_EPOCH": 81316, "BSTAR": 0.00050775945, "MEAN_MOTION_DOT": 1.508e-05, "MEAN_MOTION_DDOT": 0}, "tle": {"line1": "1 37928U 99025EPD 25355.37791147  .00001508  00000+0  50776-3 0  9994", "line2": "2 37928  98.9148 230.2847 0073076   7.9876 352.2454 14.37132631813161"}}, "geometry": {"type": "Point", "coordinates": [-152.89982345605048, 72.23186259571722]}}, {"type": "Feature", "properties": {"norad_id": 38116, "name": "FENGYUN 1C DEB", "group": "fengyun-1c-debris", "lat": 58.183631600025265, "lon": -125.94450454692519, "alt_km": 779.2719255332249, "timestamp": "2025-12-27T07:26:25.511515+00:00", "meta": {"OBJECT_NAME": "FENGYUN 1C DEB", "OBJECT_ID": "1999-025EPM", "EPOCH": "2025-12-21T08:35:05.821728", "MEAN_MOTION": 14.17033054, "ECCENTRICITY": 0.00724673, "INCLINATION": 98.7117, "RA_OF_ASC_NODE": 33.9167, "ARG_OF_PERICENTER": 122.4097, "MEAN_ANOMALY": 250.3573, "EPHEMERIS_TYPE": 0, "CLASSIFICATION_TYPE": "U", "NORAD_CAT_ID": 38116, "ELEMENT_SET_NO": 999, "REV_AT_EPOCH": 64607, "BSTAR": 0.00039691226, "MEAN_MOTION_DOT": 7.76e-06, "MEAN_MOTION_DDOT": 0}, "tle": {"line1": "1 38116U 99025EPM 25355.35770627  .00000776  00000+0  39691-3 0  9991", "line2": "2 38116  98.7117  33.9167 0072467 122.4097 250.3573 14.17033054646070"}}, "geometry": {"type": "Point", "coordinates": [-125.94450454692519, 58.183631600025265]}}]}